GLOBALSTAR M067         
1 32263U 07048A   25362.91139425 -.00000057  00000+0  30145-3 0  9995
2 32263  51.9694 186.1463 0002078  64.6217  83.3035 12.40683439833651
GLOBALSTAR M070         
1 32264U 07048B   25363.00743505 -.00000070  00000+0  18602-3 0  9996
2 32264  51.9745 254.9978 0000687  67.6816  35.5416 12.62328141838271
GLOBALSTAR M066         
1 32265U 07048C   25362.79239828 -.00000095  00000+0 -78743-5 0  9992
2 32265  51.9562 187.0665 0005730  54.9916 317.3885 12.30383894839253
GLOBALSTAR M068         
1 32266U 07048D   25363.41573145 -.00000068  00000+0  19937-3 0  9993
2 32266  51.9899  67.1277 0001310 179.8123 263.7796 12.62836357842229
GLOBALSTAR M079         
1 37188U 10054A   25363.14700222 -.00000079  00000+0  13955-3 0  9996
2 37188  52.0031 266.2994 0000941  45.2521 102.5370 12.62269324701071
GLOBALSTAR M074         
1 37189U 10054B   25363.17706479 -.00000079  00000+0  13830-3 0  9992
2 37189  52.0017 265.5005 0000980  66.6659  97.4352 12.62264630701687
GLOBALSTAR M076         
1 37190U 10054C   25363.11948916 -.00000092  00000+0  65272-4 0  9995
2 37190  52.0031 265.8655 0001091  59.6094  81.8110 12.62268532701390
GLOBALSTAR M077         
1 37191U 10054D   25363.17623132 -.00000070  00000+0  15171-3 0  9990
2 37191  51.9961 251.1316 0001498  52.1388 117.0082 11.68176657701276
